QIANFAN-9               
1 60387U 24140J   25330.90871528  .00000085  00000+0  11292-3 0  9998
2 60387  88.9748 300.9759 0014379 241.4178 118.5526 13.50978309 65198
QIANFAN-10              
1 60388U 24140K   25330.91290700  .00000086  00000+0  11533-3 0  9996
2 60388  88.9758 300.3209 0013227 215.5911 144.4359 13.50978956 65327
QIANFAN-11              
1 60389U 24140L   25330.94995315  .00000084  00000+0  11234-3 0  9990
2 60389  88.9683 300.9162 0012418 240.5693 119.4220 13.50975171 64981
QIANFAN-12              
1 60390U 24140M   25330.89639413  .00000079  00000+0  10355-3 0  9997
2 60390  88.9727 300.9583 0011161 250.1463 109.8485 13.50975870 65102
QIANFAN-13              
1 60391U 24140N   25330.94166226  .00000094  00000+0  12761-3 0  9991
2 60391  88.9739 301.0514 0010974 253.1124 106.8824 13.50976388 65132
QIANFAN-14              
1 60392U 24140P   25330.89218396  .00000078  00000+0  10289-3 0  9997
2 60392  88.9718 300.9577 0014659 253.4303 106.5239 13.50976010 65132
QIANFAN-15              
1 60393U 24140Q   25330.90045881  .00000082  00000+0  10855-3 0  9991
2 60393  88.9741 300.9095 0010567 236.8195 123.1944 13.50974730 65126
QIANFAN-16              
1 60394U 24140R   25330.88826099  .00000089  00000+0  11965-3 0  9997
2 60394  88.9744 301.0304 0012581 257.8883 102.0858 13.50974933 65035
